[
  {
    "placeName": "Hiral Supermarket",
    "type": "General Store",
    "yearEstablished": 2003,
    "ownership": "Family Owned",
    "crossLane": "Fourth Cross",
    "hours": "Mon - Sun\n8:30 am - 10:00 pm",
    "img": "../Shops/shop_1.png",
    "srNo": 1
  },
  {
    "placeName": "Super Fresh",
    "type": "Groceries",
    "yearEstablished": 2013,
    "ownership": "Family Owned",
    "crossLane": "Fourth Cross",
    "hours": "Mon - Sun\n8:30 am - 10:00 pm",
    "img": "../Shops/shop_2.png",
    "srNo": 2
  },
  {
    "placeName": "Medi House",
    "type": "Pharmacy",
    "yearEstablished": 2020,
    "ownership": "Family Owned",
    "crossLane": "Fourth Cross",
    "hours": "Mon - Sun\nOpen 24 Hrs",
    "img": "../Shops/shop_3.png",
    "srNo": 3
  },
  {
    "placeName": "Hangout",
    "type": "Bakery",
    "yearEstablished": 2000,
    "ownership": "Franchise",
    "crossLane": "Fourth Cross",
    "hours": "Mon - Sun\n7:00 am - 12:00 am",
    "img": "../Shops/shop_4.png",
    "srNo": 4
  },
  {
    "placeName": "Arome",
    "type": "Dry Fruits",
    "yearEstablished": 2018,
    "ownership": "Franchise",
    "crossLane": "Fourth Cross",
    "hours": "Mon - Sun\n11:00 am - 9:00 pm",
    "img": "../Shops/shop_5.png",
    "srNo": 5
  },
  {
    "placeName": "Harsha & Rakesh",
    "type": "Salon",
    "yearEstablished": 2007,
    "ownership": "Franchise",
    "crossLane": "Fourth Cross",
    "hours": "Mon - Sun\n10:00 am - 9:00 pm",
    "img": "../Shops/shop_6.png",
    "srNo": 6
  },
  {
    "placeName": "Society Stores",
    "type": "General Store",
    "yearEstablished": 2014,
    "ownership": "Franchise",
    "crossLane": "Fourth Cross",
    "hours": "Mon - Sun\n9:45 am - 10:00 pm",
    "img": "../Shops/shop_7.png",
    "srNo": 7
  },
  {
    "placeName": "HP World",
    "type": "Electronics",
    "yearEstablished": "?",
    "ownership": "Franchise",
    "crossLane": "Fourth Cross",
    "hours": "Mon - Sun\n11:00 am - 10:00 pm",
    "img": "../Shops/shop_8.png",
    "srNo": 8
  },
  {
    "placeName": "Theobroma",
    "type": "Bakery",
    "yearEstablished": "?",
    "ownership": "Franchise",
    "crossLane": "Fourth Cross",
    "hours": "Mon - Sun\n9:00 am - 11:00 pm",
    "img": "../Shops/shop_9.png",
    "srNo": 9
  },
  {
    "placeName": "Harish Plus",
    "type": "Toys & Stationery",
    "yearEstablished": "",
    "ownership": "Family Owned",
    "crossLane": "Third Cross",
    "hours": "Mon - Sun\n10:00 am - 10:00 pm",
    "img": "../Shops/shop_10.png",
    "srNo": 10
  },
  {
    "placeName": "Sweet Home",
    "type": "General Store",
    "yearEstablished": 2001,
    "ownership": "Family Owned",
    "crossLane": "Third Cross",
    "hours": "Mon - Sun\n9:00 am - 10:00 pm",
    "img": "../Shops/shop_11.png",
    "srNo": 11
  },
  {
    "placeName": "Fantasy Optics",
    "type": "Opticians",
    "yearEstablished": 1999,
    "ownership": "Franchise",
    "crossLane": "Third Cross",
    "hours": "Mon - Sun\n11:00 am - 10:00 pm",
    "img": "../Shops/shop_12.png",
    "srNo": 12
  },
  {
    "placeName": "High Point",
    "type": "Restaurant",
    "yearEstablished": 1987,
    "ownership": "Family Owned",
    "crossLane": "Third Cross",
    "hours": "Mon - Sun\n9:00 am - 11:30 pm",
    "img": "../Shops/shop_13.png",
    "srNo": 13
  },
  {
    "placeName": "Bhagwan Collection",
    "type": "Tailors",
    "yearEstablished": "?",
    "ownership": "Franchise",
    "crossLane": "Third Cross",
    "hours": "Mon - Sun\n11:00 am - 9:00 pm",
    "img": "../Shops/shop_14.png",
    "srNo": 14
  },
  {
    "placeName": "MINISO",
    "type": "Stationery",
    "yearEstablished": 2019,
    "ownership": "Franchise",
    "crossLane": "Third Cross",
    "hours": "Mon - Thu\n9:30 am - 9:30 pm\nFri - Sun\n10:30 am - 10:00 pm",
    "img": "../Shops/shop_15.png",
    "srNo": 15
  },
  {
    "placeName": "Monsoon Chaat",
    "type": "Confectionary",
    "yearEstablished": 1989,
    "ownership": "Family Owned",
    "crossLane": "Second Cross",
    "hours": "Mon - Sun\n8:30 am - 12:00 am",
    "img": "../Shops/shop_16.png",
    "srNo": 16
  },
  {
    "placeName": "Wellness Forever",
    "type": "Pharmacy",
    "yearEstablished": 2008,
    "ownership": "Franchise",
    "crossLane": "Second Cross",
    "hours": "Mon - Sun\nOpen 24 Hrs",
    "img": "../Shops/shop_17.png",
    "srNo": 17
  },
  {
    "placeName": "Breadkraft",
    "type": "Confectionary & Groceries",
    "yearEstablished": "?",
    "ownership": "Family Owned",
    "crossLane": "Second Cross",
    "hours": "Mon - Sun\n9:30 am - 11:00 pm",
    "img": "../Shops/shop_18.png",
    "srNo": 18
  },
  {
    "placeName": "Harish Collection",
    "type": "Toys & Stationery",
    "yearEstablished": 1992,
    "ownership": "Family Owned",
    "crossLane": "Second Cross",
    "hours": "Mon - Sun\n10:30 am - 10:30 pm",
    "img": "../Shops/shop_19.png",
    "srNo": 19
  },
  {
    "placeName": "Cover Cafe",
    "type": "Electronics",
    "yearEstablished": 2020,
    "ownership": "Family Owned",
    "crossLane": "Second Cross",
    "hours": "Mon - Sun\n10:30 am - 10:30 pm",
    "img": "../Shops/shop_20.png",
    "srNo": 20
  },
  {
    "placeName": "Baskin Robins",
    "type": "Confectionary",
    "yearEstablished": 2004,
    "ownership": "Franchise",
    "crossLane": "Second Cross",
    "hours": "Mon - Sun\nOpen 24 Hrs",
    "img": "../Shops/shop_21.png",
    "srNo": 21
  },
  {
    "placeName": "Warden Bakery",
    "type": "Confectionary & Groceries",
    "yearEstablished": 1979,
    "ownership": "Franchise",
    "crossLane": "Second Cross",
    "hours": "Mon - Sun\n9:00 am - 9:00 pm",
    "img": "../Shops/shop_22.png",
    "srNo": 22
  },
  {
    "placeName": "Naturals Ice Cream",
    "type": "Confectionary",
    "yearEstablished": 1994,
    "ownership": "Franchise",
    "crossLane": "Second Cross",
    "hours": "Mon - Sun\n9:30 am - 1:00 am",
    "img": "../Shops/shop_23.png",
    "srNo": 23
  },
  {
    "placeName": "Food Inn",
    "type": "Restaurant",
    "yearEstablished": 1987,
    "ownership": "Franchise",
    "crossLane": "First Cross",
    "hours": "Mon - Sun\n12:00 pm - 1:30 am",
    "img": "../Shops/shop_24.png",
    "srNo": 24
  },
  {
    "placeName": "Citibank ATM",
    "type": "Bank",
    "yearEstablished": "?",
    "ownership": "Franchise",
    "crossLane": "First Cross",
    "hours": "Mon - Sun\nOpen 24 Hrs",
    "img": "../Shops/shop_25.png",
    "srNo": 25
  },
  {
    "placeName": "DCB Bank",
    "type": "Bank",
    "yearEstablished": "?",
    "ownership": "Franchise",
    "crossLane": "First Cross",
    "hours": "Mon - Fri\n1:30 am - 4:00 pm\nSat - Sun\nClosed - Closed",
    "img": "../Shops/shop_26.png",
    "srNo": 26
  },
  {
    "placeName": "McDonald's",
    "type": "Restaurant",
    "yearEstablished": 1997,
    "ownership": "Franchise",
    "crossLane": "First Cross",
    "hours": "Mon - Sun\n7:15 am - 12:45 am",
    "img": "../Shops/shop_27.png",
    "srNo": 27
  },
  {
    "placeName": "Archies Gallery",
    "type": "Gifts & Cards",
    "yearEstablished": 1998,
    "ownership": "Franchise",
    "crossLane": "First Cross",
    "hours": "Mon - Sun\n10:30 am - 9:30 pm",
    "img": "../Shops/shop_28.png",
    "srNo": 28
  },
  {
    "placeName": "Airtel Gallery",
    "type": "Mobile Service Provider",
    "yearEstablished": "?",
    "ownership": "Franchise",
    "crossLane": "First Cross",
    "hours": "Mon\n12:00 am - 11:59 pm\nTue - Sun\nOpen 24 Hrs",
    "img": "../Shops/shop_29.png",
    "srNo": 29
  },
  {
    "placeName": "Lemon",
    "type": "Salon",
    "yearEstablished": 2006,
    "ownership": "Franchise",
    "crossLane": "First Cross",
    "hours": "Mon - Sun\n11:00 am - 9:00 pm",
    "img": "../Shops/shop_30.png",
    "srNo": 30
  },
  {
    "placeName": "ICICI Bank",
    "type": "Bank",
    "yearEstablished": "?",
    "ownership": "Franchise",
    "crossLane": "First Cross",
    "hours": "Mon - Fri\n8:00 am - 4:00 pm\nSat\n9:00 am - 2:00 pm\nSun\nClosed - Closed",
    "img": "../Shops/shop_31.png",
    "srNo": 31
  },
  {
    "placeName": "7th Heaven",
    "type": "Bakery",
    "yearEstablished": 2014,
    "ownership": "Franchise",
    "crossLane": "First Cross",
    "hours": "Mon - Sun\n10:00 am - 9:00 pm",
    "img": "../Shops/shop_32.png",
    "srNo": 32
  },
  {
    "placeName": "Belgian Waffle",
    "type": "Confectionary",
    "yearEstablished": 2016,
    "ownership": "Franchise",
    "crossLane": "First Cross",
    "hours": "Mon - Sun\n10:00 am - 12:00 am",
    "img": "../Shops/shop_33.png",
    "srNo": 33
  },
  {
    "placeName": "Eagle Hardware",
    "type": "Hardware Store",
    "yearEstablished": 2000,
    "ownership": "Family Owned",
    "crossLane": "Second Cross",
    "hours": "Mon - Sun\n9:00 am - 9:00 pm",
    "img": "../Shops/shop_34.png",
    "srNo": 34
  },
  {
    "placeName": "Starbucks Coffee",
    "type": "Cafe",
    "yearEstablished": 2017,
    "ownership": "Franchise",
    "crossLane": "Past Fourth Cross",
    "hours": "Mon - Sun\n6:00 am - 1:00 am",
    "img": "../Shops/shop_35.png",
    "srNo": 35
  },
  {
    "placeName": "Enrich",
    "type": "Salon",
    "yearEstablished": "?",
    "ownership": "Franchise",
    "crossLane": "Past Fourth Cross",
    "hours": "Mon - Fri\n11:00 am - 9:00 pm\nSat - Sun\n10:00 am - 9:00 pm",
    "img": "../Shops/shop_36.png",
    "srNo": 36
  },
  {
    "placeName": "Kotak Mahindra Bank",
    "type": "Bank",
    "yearEstablished": "?",
    "ownership": "Franchise",
    "crossLane": "Past Fourth Cross",
    "hours": "Mon - Fri\n9:30 am - 4:30 pm\nSat\n9:30 am - 1:30 pm\nSun\nClosed - Closed",
    "img": "../Shops/shop_43.png",
    "srNo": 37
  }
]